[{"OBJECT_NAME":"STARLINK-30449","OBJECT_ID":"2023-146N","EPOCH":"2026-03-09T22:00:01.999584","MEAN_MOTION":15.06613428,"ECCENTRICITY":0.00015375,"INCLINATION":43.0004,"RA_OF_ASC_NODE":311.56,"ARG_OF_PERICENTER":279.873,"MEAN_ANOMALY":194.5239,"EPHEMERIS_TYPE":0,"CLASSIFICATION_TYPE":"U","NORAD_CAT_ID":57903,"ELEMENT_SET_NO":999,"REV_AT_EPOCH":578,"BSTAR":0.062378126,"MEAN_MOTION_DOT":0.01013373,"MEAN_MOTION_DDOT":0},{"OBJECT_NAME":"DIAMANT DEB","OBJECT_ID":"1967-014C","EPOCH":"2026-03-07T10:00:52.471872","MEAN_MOTION":14.08335033,"ECCENTRICITY":0.04404535,"INCLINATION":39.955,"RA_OF_ASC_NODE":162.5873,"ARG_OF_PERICENTER":146.5113,"MEAN_ANOMALY":216.4329,"EPHEMERIS_TYPE":0,"CLASSIFICATION_TYPE":"U","NORAD_CAT_ID":2684,"ELEMENT_SET_NO":999,"REV_AT_EPOCH":92662,"BSTAR":0.001598728,"MEAN_MOTION_DOT":6.727e-5,"MEAN_MOTION_DDOT":0}]
